STARLINK-31700          
1 59436U 24065R   24289.02675868 -.00003591  00000+0 -79808-4 0  9996
2 59436  53.1586 139.3956 0000936  78.7738 281.3372 15.39629986 30660
STARLINK-31706          
1 59437U 24065S   24288.59591765 -.00003001  00000+0 -65028-4 0  9996
2 59437  53.1598 141.6903 0001138  97.5912 262.5222 15.39638534 30585
STARLINK-31711          
1 59438U 24065T   24289.61132567  .00004472  00000+0  12169-3 0  9990
2 59438  53.1575 136.6505 0001428  94.2166 265.9002 15.39629001 30751
STARLINK-31708          
1 59439U 24065U   24289.60169801  .00004453  00000+0  12125-3 0  9992
2 59439  53.1599 136.5881 0000564  49.1774 310.9279 15.39611545 30759
STARLINK-31693          
1 59441U 24065W   24289.00851398  .00000444  00000+0  21077-4 0  9991
2 59441  53.1582 139.2883 0001511 100.2620 259.8555 15.39649567 30661
STARLINK-31617          
1 59455U 24068A   24289.52621653 -.00003198  00000+0 -69368-4 0  9991
2 59455  43.0012  49.1765 0001167 281.2594  78.8132 15.40682931 30346
STARLINK-31622          
1 59456U 24068B   24289.57760519 -.00004547  00000+0 -10165-3 0  9991
2 59456  43.0032  48.6996 0001326 269.8264  90.2440 15.40699190 30358
STARLINK-31319          
1 59457U 24068C   24289.60672302  .00002837  00000+0  75187-4 0  9992
2 59457  43.0050  48.9246 0001449 278.2463  81.8229 15.40685980 30354
STARLINK-31625          
1 59458U 24068D   24289.50380672  .00000997  00000+0  31127-4 0  9999
2 59458  43.0036  49.0037 0001792 267.6520  92.4131 15.40701161 30345
STARLINK-31631          
1 59459U 24068E   24289.61792017  .00001124  00000+0  34164-4 0  9999
2 59459  43.0044  49.0105 0001613 271.4115  88.6557 15.40700289 30356
STARLINK-31620          
1 59460U 24068F   24289.53518729 -.00000304  00000+0 -11477-7 0  9994
2 59460  43.0053  49.2458 0001273 276.1959  83.8752 15.40675050 30341
STARLINK-31511          
1 59462U 24068H   24289.51948440  .00000214  00000+0  12393-4 0  9994
2 59462  43.0023  49.1184 0001893 229.9506 130.1184 15.40702514 30348
STARLINK-31364          
1 59463U 24068J   24289.61120511  .00000556  00000+0  20583-4 0  9996
2 59463  43.0014  48.9571 0001935 287.5682  72.4963 15.40692186 30355
STARLINK-31597          
1 59464U 24068K   24289.49932700  .00002617  00000+0  69890-4 0  9998
2 59464  43.0035  48.9685 0001199 284.0522  76.0201 15.40695939 30299
STARLINK-31621          
1 59465U 24068L   24289.50604690 -.00006738  00000+0 -15424-3 0  9998
2 59465  43.0017  49.0313 0001454 263.5609  96.5082 15.40687897 30346
STARLINK-31462          
1 59466U 24068M   24289.62449985 -.00001536  00000+0 -29490-4 0  9996
2 59466  43.0030  48.1720 0001387 272.6365  87.4332 15.40712848 30363
STARLINK-31592          
1 59467U 24068N   24289.58207635  .00003811  00000+0  98454-4 0  9998
2 59467  43.0002  48.7272 0001952 252.7230 107.3413 15.40698869 30356
STARLINK-31267          
1 59468U 24068P   24289.53295831 -.00003473  00000+0 -76005-4 0  9993
2 59468  43.0027  49.2268 0000947 314.3712  45.7067 15.40664032 30342
STARLINK-31381          
1 59469U 24068Q   24289.53070176 -.00000430  00000+0 -30348-5 0  9998
2 59469  43.0026  49.2094 0001196 291.9824  68.0905 15.40677484 30344
STARLINK-31546          
1 59470U 24068R   24289.60895780  .00004378  00000+0  11202-3 0  9993
2 59470  43.0047  48.9373 0002700 267.6176  92.4372 15.40702227 30351
STARLINK-31575          
1 59471U 24068S   24289.34292073  .00003979  00000+0  10244-3 0  9992
2 59471  43.0011  50.3778 0001295 240.3942 119.6785 15.40708358 30313
STARLINK-31375          
1 59472U 24068T   24289.66667824  .00419853  00000+0  17812-2 0  9997
2 59472  42.9929  40.3583 0022721   1.5678  90.4334 15.83055423 30459
STARLINK-31610          
1 59473U 24068U   24289.50155426  .00002454  00000+0  66012-4 0  9994
2 59473  43.0030  48.9833 0001711 304.5960  55.4735 15.40688610 30340
STARLINK-31581          
1 59474U 24068V   24288.68568515 -.00000918  00000+0 -14719-4 0  9992
2 59474  43.0035  54.0465 0001470 272.8226  87.2462 15.40701882 30212
STARLINK-31566          
1 59475U 24068W   24289.62004085  .00000165  00000+0  11231-4 0  9993
2 59475  43.0032  48.1488 0001427 283.7653  76.3044 15.40674291 30360
STARLINK-31515          
1 59476U 24068X   24289.56192125 -.00001005  00000+0 -16804-4 0  9997
2 59476  43.0026  48.5737 0001048 272.3161  87.7575 15.40697497 30359
STARLINK-31531          
1 59477U 24068Y   24289.40242667  .00124764  00000+0  27467-2 0  9999
2 59477  43.0032  49.0903 0002973 334.0699  26.0009 15.42790852 30335
STARLINK-31753          
1 59484U 24071A   24289.28697054  .00000021  00000+0  77711-5 0  9990
2 59484  43.0012   9.2830 0001321 219.6569 140.4191 15.40698715 29837
STARLINK-31653          
1 59485U 24071B   24289.58334491  .00247665  00000+0  40210-2 0  9995
2 59485  43.0021   5.6493 0008826  41.0741 241.4271 15.51063154  5963
STARLINK-31733          
1 59486U 24071C   24289.53060191 -.00005600  00000+0 -12688-3 0  9996
2 59486  43.0026   7.6702 0002581 261.1206  98.9359 15.40694464 29877
STARLINK-31657          
1 59487U 24071D   24289.34507986  .00003487  00000+0  90711-4 0  9997
2 59487  43.0036   8.8592 0001870 258.2718 101.7929 15.40699296 29845
STARLINK-31754          
1 59488U 24071E   24289.23768933  .00008682  00000+0  21480-3 0  9995
2 59488  42.9990   8.9065 0000338 306.3628  53.7198 15.40706744 29832
STARLINK-31638          
1 59489U 24071F   24289.31149472 -.00001376  00000+0 -25678-4 0  9995
2 59489  43.0001   8.5988 0002445 292.5144  67.5453 15.40675339 29841
STARLINK-31670          
1 59490U 24071G   24288.71696529 -.00005699  00000+0 -12923-3 0  9990
2 59490  43.0026  12.7613 0001497 252.8732 107.1960 15.40707899 29740
STARLINK-31712          
1 59491U 24071H   24289.52389121  .00004090  00000+0  10517-3 0  9997
2 59491  43.0057   7.6191 0001530 263.6026  96.4657 15.40683935 29874
STARLINK-31684          
1 59492U 24071J   24289.42546151  .00001953  00000+0  54044-4 0  9994
2 59492  43.0022   7.7328 0001668 241.3055 118.7634 15.40684151 29860
STARLINK-31678          
1 59493U 24071K   24289.48355375  .00001107  00000+0  33795-4 0  9998
2 59493  43.0039   7.3040 0002358 242.2228 117.8390 15.40689799 28697
STARLINK-31744          
1 59494U 24071L   24289.55062971  .00001968  00000+0  54361-4 0  9991
2 59494  43.0019   6.9465 0001228 241.6487 118.4245 15.40694164 29887
STARLINK-31719          
1 59495U 24071M   24289.21094421  .00004438  00000+0  11348-3 0  9992
2 59495  43.0025   9.5712 0001728 262.1293  97.9368 15.40690162 29822
STARLINK-31728          
1 59496U 24071N   24289.40767595 -.00002015  00000+0 -41024-4 0  9999
2 59496  43.0004   8.4656 0000464 262.6428  97.4376 15.40680065 29854
STARLINK-31720          
1 59497U 24071P   24289.58422402  .00002752  00000+0  73077-4 0  9993
2 59497  42.9998   7.2079 0001003 271.0944  88.9798 15.40712297 29887
STARLINK-31731          
1 59498U 24071Q   24289.52835670  .00004352  00000+0  11137-3 0  9999
2 59498  43.0041   7.6501 0002547 288.0414  72.0165 15.40705744 29877
STARLINK-31742          
1 59499U 24071R   24289.52165174  .00004159  00000+0  10684-3 0  9996
2 59499  43.0032   7.5935 0002053 269.2764  90.7858 15.40679023 29875
STARLINK-31512          
1 59500U 24071S   24289.57499267  .00017971  00000+0  43374-3 0  9995
2 59500  43.0012   7.1358 0001007 267.7384  92.3358 15.40889054 29881
STARLINK-31458          
1 59501U 24071T   24289.52611449  .00005725  00000+0  14418-3 0  9990
2 59501  43.0040   7.6320 0002080 302.2157  57.8498 15.40710159 29871
STARLINK-31357          
1 59502U 24071U   24289.57750924  .00007003  00000+0  17470-3 0  9990
2 59502  43.0003   7.1552 0001505 277.2633  82.8052 15.40707838 29889
STARLINK-31508          
1 59503U 24071V   24289.37854660  .00008477  00000+0  20994-3 0  9992
2 59503  42.9981   8.2418 0000261 214.5614 145.5226 15.40701042 29855
STARLINK-31535          
1 59504U 24071W   24289.54355640 -.00000821  00000+0 -12399-4 0  9994
2 59504  43.0015   6.8906 0001555 243.1557 116.9140 15.40697217 29881
STARLINK-31533          
1 59505U 24071X   24289.43891370 -.00001133  00000+0 -19895-4 0  9993
2 59505  43.0006   7.8280 0001118 264.8970  95.1758 15.40670424 29864
STARLINK-31524          
1 59506U 24071Y   24287.31882032 -.00119661  00000+0 -25803-2 0  9994
2 59506  43.0038  19.4354 0002311 296.1558  63.9062 15.44190179 29518
STARLINK-31635          
1 59511U 24073A   24289.32248341 -.00000330  00000+0 -63782-6 0  9998
2 59511  43.0022 338.3096 0000999 265.7295  94.3447 15.40685694 27917
STARLINK-31650          
1 59512U 24073B   24289.54817932  .00002347  00000+0  63432-4 0  9999
2 59512  43.0020 336.5534 0000999 232.6086 127.4680 15.40695112 27951
STARLINK-31658          
1 59513U 24073C   24289.49409673  .00098743  00000+0  13391-2 0  9995
2 59513  42.9995 304.0793 0012966 105.4632 254.7663 15.56523949 28310
STARLINK-31664          
1 59514U 24073D   24289.47662217 -.00006546  00000+0 -14945-3 0  9998
2 59514  43.0008 336.8788 0001096 276.4971  83.5761 15.40726850 27946
STARLINK-31669          
1 59515U 24073E   24289.38058255  .00000819  00000+0  26888-4 0  9995
2 59515  43.0031 337.8793 0001907 233.6804 126.3876 15.40689964 27926
STARLINK-31671          
1 59516U 24073F   24288.55784684 -.00000460  00000+0 -37543-5 0  9991
2 59516  43.0004 342.0152 0000465 239.2074 120.8737 15.40689530 29020
STARLINK-31674          
1 59517U 24073G   24289.30903424  .00006733  00000+0  16831-3 0  9993
2 59517  43.0008 338.2054 0001250 249.9102 110.1620 15.40696169 27911
STARLINK-31679          
1 59519U 24073J   24289.48782946  .00000781  00000+0  25967-4 0  9996
2 59519  43.0017 336.9620 0001323 258.4638 101.6071 15.40701860 27940
STARLINK-31370          
1 59520U 24073K   24289.46766753  .00001714  00000+0  48280-4 0  9994
2 59520  42.9999 336.8096 0002220 224.8864 135.1814 15.40702407 27945
